{
    "week": 288,
    "satellites": [
        {
            "Name": "GSAT0208 (GALILEO 11)",
            "Line1": "1 41175U 15079B   24289.79849836  .00000075  00000+0  00000+0 0  9999",
            "Line2": "2 41175  55.4786 117.9970 0001790  12.1949 347.8862  1.70473974 54809",
            "SatelliteNumber": "41175",
            "Classification": "U",
            "LaunchYear": "15",
            "LaunchNumber": "079",
            "PieceOfLaunch": "B",
            "EpochYear": "24",
            "EpochDay": 289.79849836,
            "FirstDerivativeMeanMotion": 7.5e-07,
            "SecondDerivativeMeanMotion": "00000+0",
            "BSTAR": "00000+0",
            "SetNumber": "999",
            "Inclination": 55.4786,
            "RAAN": 117.997,
            "Eccentricity": 0.000179,
            "ArgumentOfPerigee": 12.1949,
            "MeanAnomaly": 347.8862,
            "MeanMotion": 1.70473974,
            "RevolutionNumber": "5480"
        },
        {
            "Name": "GSAT0211 (GALILEO 14)",
            "Line1": "1 41549U 16030A   24289.33453047 -.00000007  00000+0  00000+0 0  9993",
            "Line2": "2 41549  55.3152 238.4704 0003520 332.8110  27.1339  1.70472951 52279",
            "SatelliteNumber": "41549",
            "Classification": "U",
            "LaunchYear": "16",
            "LaunchNumber": "030",
            "PieceOfLaunch": "A",
            "EpochYear": "24",
            "EpochDay": 289.33453047,
            "FirstDerivativeMeanMotion": -7e-08,
            "SecondDerivativeMeanMotion": "00000+0",
            "BSTAR": "00000+0",
            "SetNumber": "999",
            "Inclination": 55.3152,
            "RAAN": 238.4704,
            "Eccentricity": 0.000352,
            "ArgumentOfPerigee": 332.811,
            "MeanAnomaly": 27.1339,
            "MeanMotion": 1.70472951,
            "RevolutionNumber": "5227"
        },
        {
            "Name": "GSAT0210 (GALILEO 13)",
            "Line1": "1 41550U 16030B   24291.35237445 -.00000010  00000+0  00000+0 0  9996",
            "Line2": "2 41550  55.3140 238.4132 0003001 247.2145 112.7179  1.70473386 52304",
            "SatelliteNumber": "41550",
            "Classification": "U",
            "LaunchYear": "16",
            "LaunchNumber": "030",
            "PieceOfLaunch": "B",
            "EpochYear": "24",
            "EpochDay": 291.35237445,
            "FirstDerivativeMeanMotion": -1e-07,
            "SecondDerivativeMeanMotion": "00000+0",
            "BSTAR": "00000+0",
            "SetNumber": "999",
            "Inclination": 55.314,
            "RAAN": 238.4132,
            "Eccentricity": 0.0003001,
            "ArgumentOfPerigee": 247.2145,
            "MeanAnomaly": 112.7179,
            "MeanMotion": 1.70473386,
            "RevolutionNumber": "5230"
        },
        {
            "Name": "GSAT0207 (GALILEO 15)",
            "Line1": "1 41859U 16069A   24289.87220665  .00000074  00000+0  00000+0 0  9999",
            "Line2": "2 41859  55.1455 117.9693 0001848 326.6199  33.4449  1.70474048 49013",
            "SatelliteNumber": "41859",
            "Classification": "U",
            "LaunchYear": "16",
            "LaunchNumber": "069",
            "PieceOfLaunch": "A",
            "EpochYear": "24",
            "EpochDay": 289.87220665,
            "FirstDerivativeMeanMotion": 7.4e-07,
            "SecondDerivativeMeanMotion": "00000+0",
            "BSTAR": "00000+0",
            "SetNumber": "999",
            "Inclination": 55.1455,
            "RAAN": 117.9693,
            "Eccentricity": 0.0001848,
            "ArgumentOfPerigee": 326.6199,
            "MeanAnomaly": 33.4449,
            "MeanMotion": 1.70474048,
            "RevolutionNumber": "4901"
        },
        {
            "Name": "GSAT0212 (GALILEO 16)",
            "Line1": "1 41860U 16069B   24286.79346465  .00000073  00000+0  00000+0 0  9995",
            "Line2": "2 41860  55.1415 118.0509 0002252  33.7896 326.3043  1.70474255 49215",
            "SatelliteNumber": "41860",
            "Classification": "U",
            "LaunchYear": "16",
            "LaunchNumber": "069",
            "PieceOfLaunch": "B",
            "EpochYear": "24",
            "EpochDay": 286.79346465,
            "FirstDerivativeMeanMotion": 7.3e-07,
            "SecondDerivativeMeanMotion": "00000+0",
            "BSTAR": "00000+0",
            "SetNumber": "999",
            "Inclination": 55.1415,
            "RAAN": 118.0509,
            "Eccentricity": 0.0002252,
            "ArgumentOfPerigee": 33.7896,
            "MeanAnomaly": 326.3043,
            "MeanMotion": 1.70474255,
            "RevolutionNumber": "4921"
        },
        {
            "Name": "GSAT0213 (GALILEO 17)",
            "Line1": "1 41861U 16069C   24291.26788169  .00000065  00000+0  00000+0 0  9996",
            "Line2": "2 41861  55.1463 117.9337 0001659 275.0604  84.9873  1.70474624 49155",
            "SatelliteNumber": "41861",
            "Classification": "U",
            "LaunchYear": "16",
            "LaunchNumber": "069",
            "PieceOfLaunch": "C",
            "EpochYear": "24",
            "EpochDay": 291.26788169,
            "FirstDerivativeMeanMotion": 6.5e-07,
            "SecondDerivativeMeanMotion": "00000+0",
            "BSTAR": "00000+0",
            "SetNumber": "999",
            "Inclination": 55.1463,
            "RAAN": 117.9337,
            "Eccentricity": 0.0001659,
            "ArgumentOfPerigee": 275.0604,
            "MeanAnomaly": 84.9873,
            "MeanMotion": 1.70474624,
            "RevolutionNumber": "4915"
        },
        {
            "Name": "GSAT0214 (GALILEO 18)",
            "Line1": "1 41862U 16069D   24290.24010197  .00000072  00000+0  00000+0 0  9991",
            "Line2": "2 41862  55.1444 117.9556 0000750 284.2282  75.8377  1.70474222 49267",
            "SatelliteNumber": "41862",
            "Classification": "U",
            "LaunchYear": "16",
            "LaunchNumber": "069",
            "PieceOfLaunch": "D",
            "EpochYear": "24",
            "EpochDay": 290.24010197,
            "FirstDerivativeMeanMotion": 7.2e-07,
            "SecondDerivativeMeanMotion": "00000+0",
            "BSTAR": "00000+0",
            "SetNumber": "999",
            "Inclination": 55.1444,
            "RAAN": 117.9556,
            "Eccentricity": 7.5e-05,
            "ArgumentOfPerigee": 284.2282,
            "MeanAnomaly": 75.8377,
            "MeanMotion": 1.70474222,
            "RevolutionNumber": "4926"
        },
        {
            "Name": "GSAT0215 (GALILEO 19)",
            "Line1": "1 43055U 17079A   24289.55622916 -.00000008  00000+0  00000+0 0  9999",
            "Line2": "2 43055  55.2928 238.2844 0002633 281.1382  78.7953  1.70473665 42598",
            "SatelliteNumber": "43055",
            "Classification": "U",
            "LaunchYear": "17",
            "LaunchNumber": "079",
            "PieceOfLaunch": "A",
            "EpochYear": "24",
            "EpochDay": 289.55622916,
            "FirstDerivativeMeanMotion": -8e-08,
            "SecondDerivativeMeanMotion": "00000+0",
            "BSTAR": "00000+0",
            "SetNumber": "999",
            "Inclination": 55.2928,
            "RAAN": 238.2844,
            "Eccentricity": 0.0002633,
            "ArgumentOfPerigee": 281.1382,
            "MeanAnomaly": 78.7953,
            "MeanMotion": 1.70473665,
            "RevolutionNumber": "4259"
        },
        {
            "Name": "GSAT0216 (GALILEO 20)",
            "Line1": "1 43056U 17079B   24291.02100683 -.00000010  00000+0  00000+0 0  9990",
            "Line2": "2 43056  55.2924 238.2440 0004109 286.3782  73.5399  1.70473782 42630",
            "SatelliteNumber": "43056",
            "Classification": "U",
            "LaunchYear": "17",
            "LaunchNumber": "079",
            "PieceOfLaunch": "B",
            "EpochYear": "24",
            "EpochDay": 291.02100683,
            "FirstDerivativeMeanMotion": -1e-07,
            "SecondDerivativeMeanMotion": "00000+0",
            "BSTAR": "00000+0",
            "SetNumber": "999",
            "Inclination": 55.2924,
            "RAAN": 238.244,
            "Eccentricity": 0.0004109,
            "ArgumentOfPerigee": 286.3782,
            "MeanAnomaly": 73.5399,
            "MeanMotion": 1.70473782,
            "RevolutionNumber": "4263"
        },
        {
            "Name": "GSAT0217 (GALILEO 21)",
            "Line1": "1 43057U 17079C   24289.48177078 -.00000008  00000+0  00000+0 0  9997",
            "Line2": "2 43057  55.2909 238.2850 0003663 301.4723  58.4551  1.70473730 42597",
            "SatelliteNumber": "43057",
            "Classification": "U",
            "LaunchYear": "17",
            "LaunchNumber": "079",
            "PieceOfLaunch": "C",
            "EpochYear": "24",
            "EpochDay": 289.48177078,
            "FirstDerivativeMeanMotion": -8e-08,
            "SecondDerivativeMeanMotion": "00000+0",
            "BSTAR": "00000+0",
            "SetNumber": "999",
            "Inclination": 55.2909,
            "RAAN": 238.285,
            "Eccentricity": 0.0003663,
            "ArgumentOfPerigee": 301.4723,
            "MeanAnomaly": 58.4551,
            "MeanMotion": 1.7047373,
            "RevolutionNumber": "4259"
        }
    ]
}